{
  "norad_id": 45435,
  "name": "ONEWEB-0083",
  "history": [
    {
      "epoch": "2026-03-28T20:50:03.260256Z",
      "apogee_km": 1219.1757002873437,
      "perigee_km": 1216.2017825930543,
      "latitude_deg": 9.143220899910777e-06,
      "longitude_deg": -101.77535176922946,
      "height_km": 1220.3226612030999,
      "semi_major_axis_km": 7595.825741440199,
      "eccentricity": 0.00019576,
      "inclination_deg": 87.8905,
      "raan_deg": 37.0206,
      "arg_perigee_deg": 80.2425,
      "mean_anomaly_deg": 279.8924,
      "mean_motion_rev_day": 13.1141538
    },
    {
      "epoch": "2026-03-29T02:19:39.429696Z",
      "apogee_km": 1219.1746355788246,
      "perigee_km": 1216.2031484898598,
      "latitude_deg": -7.404000966659603e-05,
      "longitude_deg": 175.55283406374005,
      "height_km": 1220.3233433917276,
      "semi_major_axis_km": 7595.825892034341,
      "eccentricity": 0.0001956,
      "inclination_deg": 87.8906,
      "raan_deg": 36.9751,
      "arg_perigee_deg": 80.2546,
      "mean_anomaly_deg": 279.8802,
      "mean_motion_rev_day": 13.11415341
    },
    {
      "epoch": "2026-03-30T02:07:56.200224Z",
      "apogee_km": 1219.1587577250266,
      "perigee_km": 1216.219173076417,
      "latitude_deg": 8.303255046190822e-05,
      "longitude_deg": 177.30824059567732,
      "height_km": 1220.3189103502186,
      "semi_major_axis_km": 7595.8259654007215,
      "eccentricity": 0.0001935,
      "inclination_deg": 87.8908,
      "raan_deg": 36.778,
      "arg_perigee_deg": 79.9688,
      "mean_anomaly_deg": 280.1659,
      "mean_motion_rev_day": 13.11415322
    },
    {
      "epoch": "2026-03-30T05:47:40.314912Z",
      "apogee_km": 1219.1522008575166,
      "perigee_km": 1216.2255291517295,
      "latitude_deg": -9.886869183591241e-07,
      "longitude_deg": 122.19372306251624,
      "height_km": 1220.3124533058262,
      "semi_major_axis_km": 7595.825865004623,
      "eccentricity": 0.00019265,
      "inclination_deg": 87.8908,
      "raan_deg": 36.7477,
      "arg_perigee_deg": 79.67,
      "mean_anomaly_deg": 280.4645,
      "mean_motion_rev_day": 13.11415348
    },
    {
      "epoch": "2026-03-30T13:07:08.571936Z",
      "apogee_km": 1219.1518751360727,
      "perigee_km": 1216.225962992049,
      "latitude_deg": 1.295749235484876e-06,
      "longitude_deg": 11.964478722110835,
      "height_km": 1220.3137883149732,
      "semi_major_axis_km": 7595.82591906406,
      "eccentricity": 0.0001926,
      "inclination_deg": 87.8907,
      "raan_deg": 36.687,
      "arg_perigee_deg": 79.7183,
      "mean_anomaly_deg": 280.4162,
      "mean_motion_rev_day": 13.11415334
    },
    {
      "epoch": "2026-03-30T20:26:36.842784Z",
      "apogee_km": 1219.153504983,
      "perigee_km": 1216.226225225726,
      "latitude_deg": 9.48778078576881e-05,
      "longitude_deg": -98.26472003057565,
      "height_km": 1220.3134332033792,
      "semi_major_axis_km": 7595.826865104363,
      "eccentricity": 0.00019269,
      "inclination_deg": 87.8908,
      "raan_deg": 36.6264,
      "arg_perigee_deg": 79.672,
      "mean_anomaly_deg": 280.4626,
      "mean_motion_rev_day": 13.11415089
    },
    {
      "epoch": "2026-03-31T12:55:25.330368Z",
      "apogee_km": 1219.1596357756453,
      "perigee_km": 1216.2170130449686,
      "latitude_deg": 8.087970936616257e-05,
      "longitude_deg": 13.719933670784352,
      "height_km": 1220.3105296954177,
      "semi_major_axis_km": 7595.825324410306,
      "eccentricity": 0.0001937,
      "inclination_deg": 87.8908,
      "raan_deg": 36.4899,
      "arg_perigee_deg": 79.6731,
      "mean_anomaly_deg": 280.4616,
      "mean_motion_rev_day": 13.11415488
    },
    {
      "epoch": "2026-04-01T14:33:34.060608Z",
      "apogee_km": 1219.1635367941672,
      "perigee_km": 1216.2072427200737,
      "latitude_deg": 2.330965226453657e-06,
      "longitude_deg": -12.081666998624131,
      "height_km": 1220.298087267734,
      "semi_major_axis_km": 7595.822389757121,
      "eccentricity": 0.0001946,
      "inclination_deg": 87.8909,
      "raan_deg": 36.2775,
      "arg_perigee_deg": 79.3466,
      "mean_anomaly_deg": 280.7881,
      "mean_motion_rev_day": 13.11416248
    },
    {
      "epoch": "2026-04-02T08:52:14.485440Z",
      "apogee_km": 1219.145923614852,
      "perigee_km": 1216.2191024400936,
      "latitude_deg": -3.841094051774394e-05,
      "longitude_deg": 72.34617999336027,
      "height_km": 1220.283997087692,
      "semi_major_axis_km": 7595.819513027473,
      "eccentricity": 0.00019266,
      "inclination_deg": 87.8909,
      "raan_deg": 36.1258,
      "arg_perigee_deg": 78.789,
      "mean_anomaly_deg": 281.3454,
      "mean_motion_rev_day": 13.11416993
    },
    {
      "epoch": "2026-04-02T21:41:18.784032Z",
      "apogee_km": 1219.146445075654,
      "perigee_km": 1216.215978409562,
      "latitude_deg": 4.414301047212474e-05,
      "longitude_deg": -120.5542382435743,
      "height_km": 1220.2793100935057,
      "semi_major_axis_km": 7595.818211742608,
      "eccentricity": 0.0001929,
      "inclination_deg": 87.8911,
      "raan_deg": 36.0197,
      "arg_perigee_deg": 78.6687,
      "mean_anomaly_deg": 281.4658,
      "mean_motion_rev_day": 13.1141733
    },
    {
      "epoch": "2026-04-03T19:39:43.231104Z",
      "apogee_km": 1219.138034350316,
      "perigee_km": 1216.2227596333505,
      "latitude_deg": 7.958813557455887e-05,
      "longitude_deg": -91.24051757372017,
      "height_km": 1220.2725686771196,
      "semi_major_axis_km": 7595.817396991833,
      "eccentricity": 0.0001919,
      "inclination_deg": 87.8912,
      "raan_deg": 35.8377,
      "arg_perigee_deg": 78.3705,
      "mean_anomaly_deg": 281.7639,
      "mean_motion_rev_day": 13.11417541
    },
    {
      "epoch": "2026-04-04T06:38:55.339296Z",
      "apogee_km": 1219.1461427226404,
      "perigee_km": 1216.2068667288522,
      "latitude_deg": 3.465273766646555e-05,
      "longitude_deg": 103.4167221016839,
      "height_km": 1220.2559944983625,
      "semi_major_axis_km": 7595.813504725746,
      "eccentricity": 0.00019348,
      "inclination_deg": 87.8914,
      "raan_deg": 35.7466,
      "arg_perigee_deg": 77.9623,
      "mean_anomaly_deg": 282.1722,
      "mean_motion_rev_day": 13.11418549
    },
    {
      "epoch": "2026-04-05T13:46:39.737856Z",
      "apogee_km": 1219.1435254719136,
      "perigee_km": 1216.2053136985887,
      "latitude_deg": -1.4039580989786807e-05,
      "longitude_deg": -5.054197984186486,
      "height_km": 1220.2719158876316,
      "semi_major_axis_km": 7595.81141958525,
      "eccentricity": 0.00019341,
      "inclination_deg": 87.8915,
      "raan_deg": 35.4891,
      "arg_perigee_deg": 78.6748,
      "mean_anomaly_deg": 281.4597,
      "mean_motion_rev_day": 13.11419089
    }
  ]
}